[
    {
        "Altitude(m)": 570986.9768214031,
        "Argument of Periapsis(deg)": 0.033114955553567506,
        "Eccentricity": 0.0,
        "Inclination(deg)": 53.0,
        "Latitude(deg)": -50.94391734635426,
        "Longitude(deg)": -61.52563146224681,
        "Mean Anomaly(deg)": -104.08743566211203,
        "RAAN(deg)": 154.95071684264008,
        "Satellite Name": "Starlink Shell 1 694",
        "Satellite Number": 694,
        "Semi-Major Axis(m)": 6931778.249405717,
        "Time(s)": 950
    },
    {
        "Altitude(m)": 571060.7612554828,
        "Argument of Periapsis(deg)": 0.03346353403307874,
        "Eccentricity": 0.0,
        "Inclination(deg)": 53.0,
        "Latitude(deg)": -51.13145476577804,
        "Longitude(deg)": -60.6216755981937,
        "Mean Anomaly(deg)": -103.46060445855538,
        "RAAN(deg)": 154.95019807256264,
        "Satellite Name": "Starlink Shell 1 694",
        "Satellite Number": 694,
        "Semi-Major Axis(m)": 6931778.249405717,
        "Time(s)": 960
    },
    {
        "Altitude(m)": 571131.3776231167,
        "Argument of Periapsis(deg)": 0.03381211251258998,
        "Eccentricity": 0.0,
        "Inclination(deg)": 53.0,
        "Latitude(deg)": -51.31128744452389,
        "Longitude(deg)": -59.7102047075206,
        "Mean Anomaly(deg)": -102.8337732549986,
        "RAAN(deg)": 154.94967930248515,
        "Satellite Name": "Starlink Shell 1 694",
        "Satellite Number": 694,
        "Semi-Major Axis(m)": 6931778.249405717,
        "Time(s)": 970
    },
    {
        "Altitude(m)": 571198.7977832473,
        "Argument of Periapsis(deg)": 0.034160690992101214,
        "Eccentricity": 0.0,
        "Inclination(deg)": 53.0,
        "Latitude(deg)": -51.48330637072079,
        "Longitude(deg)": -58.79143318363379,
        "Mean Anomaly(deg)": -102.2069420514419,
        "RAAN(deg)": 154.94916053240766,
        "Satellite Name": "Starlink Shell 1 694",
        "Satellite Number": 694,
        "Semi-Major Axis(m)": 6931778.249405717,
        "Time(s)": 980
    },
    {
        "Altitude(m)": 571262.9948610713,
        "Argument of Periapsis(deg)": 0.034509269471612446,
        "Eccentricity": 0.0,
        "Inclination(deg)": 53.0,
        "Latitude(deg)": -51.6474053726388,
        "Longitude(deg)": -57.86559111813203,
        "Mean Anomaly(deg)": -101.58011084788521,
        "RAAN(deg)": 154.9486417623302,
        "Satellite Name": "Starlink Shell 1 694",
        "Satellite Number": 694,
        "Semi-Major Axis(m)": 6931778.249405717,
        "Time(s)": 990
    }
]